STARLINK-1470           
1 45772U 20038AU  26068.60892913  .00054678  00000+0  19687-2 0  9990
2 45772  53.0480 174.6971 0002444  12.8687 347.2373 15.28074860317065
STARLINK-30144          
1 56835U 23079N   26068.46727537  .00020067  00000+0  74607-3 0  9992
2 56835  42.9924 104.9420 0000253 240.8019 119.2807 15.27165073152893
